[{"OBJECT_NAME":"STARLINK-33962","OBJECT_ID":"2025-098AA","EPOCH":"2026-03-09T21:08:05.537760","MEAN_MOTION":14.98334072,"ECCENTRICITY":0.00029044,"INCLINATION":70.0006,"RA_OF_ASC_NODE":273.8662,"ARG_OF_PERICENTER":266.7176,"MEAN_ANOMALY":93.3651,"EPHEMERIS_TYPE":0,"CLASSIFICATION_TYPE":"U","NORAD_CAT_ID":63950,"ELEMENT_SET_NO":999,"REV_AT_EPOCH":4658,"BSTAR":0.00019731083,"MEAN_MOTION_DOT":2.262e-5,"MEAN_MOTION_DDOT":0},{"OBJECT_NAME":"FENGYUN 1C DEB","OBJECT_ID":"1999-025GH","EPOCH":"2026-03-09T17:42:46.092672","MEAN_MOTION":14.3443525,"ECCENTRICITY":0.02859245,"INCLINATION":98.7067,"RA_OF_ASC_NODE":156.1493,"ARG_OF_PERICENTER":102.2038,"MEAN_ANOMALY":27.2455,"EPHEMERIS_TYPE":0,"CLASSIFICATION_TYPE":"U","NORAD_CAT_ID":29887,"ELEMENT_SET_NO":999,"REV_AT_EPOCH":99221,"BSTAR":0.00089189176,"MEAN_MOTION_DOT":3.936e-5,"MEAN_MOTION_DDOT":0}]
